No,Station_Name,Address,Coordinate,Type,Longtitude,Latitude
1,สถานีขนส่งผู้โดยสารกรุงเทพ (จตุจักร)/สำนักงานใหญ่,สถานีขนส่งผู้โดยสารกรุงเทพ (จตุจักร) 999 ถ.กำแพงเพชร 2 จตุจักร จตุจักร กทม. 10900,"13.813107,100.548812",สถานีเดินรถ,13.813107,100.548812
2,สถานีบริการขนส่งสาธารณะขนาดเล็ก,"สถานีขนส่งผู้โดยสารกรุงเทพ (จตุจักร) ฝั่งตรงข้ามบริเวณใต้ทางด่วน 
ถ.กำแพงเพชร 2 จตุจักร จตุจักร กทม. 10900","13.812192,100.551157",สถานีเดินรถ,13.812192,100.551157
3,สถานีขนส่งผู้โดยสารกรุงเทพ (เอกมัย),300 ถ.สุขุมวิท แขวงคลอตัน เขตคลองเตย กทม. 10260,"13.719816,100.584099",สถานีเดินรถ,13.719816,100.584099
4,สถานีขนส่งผู้โดยสารกรุงเทพ (สายใต้บรมราชชนนี),24/6 ม.8 ถ.บรมราชชนนี แขวงฉิมพลี เขตลิ่งชัน กทม. 10170,"13.781137,100.422932",สถานีเดินรถ,13.781137,100.422932
5,สำนักซ่อมบำรุงและตรวจสภาพรถ,48/26 ซ.พัฒนาเจริญรุ่ง ถ.พหลโยธิน ต.คลองหนึ่ง อ.คลองหลวง จ.ปทุมธานี 12120,"14.005085,100.609751",ที่ทำการ,14.005085,100.609751
6,งานบริการน้ำมัน (สายใต้ปิ่นเกล้า),ถ.ปิ่นเกล้า-นครชัยศรี ต.บางพลัด อ.บางพลัด กทม. 10700,"13.786386,100.468166",ที่ทำการ,13.786386,100.468166
7,จุดจำหน่ายค่าธรรมเนียม สถานีขนส่งผู้โดยสารกรุงเทพ (สายใต้ปิ่นเกล้า),ถ.ปิ่นเกล้า-นครชัยศรี ต.บางพลัด อ.บางพลัด กทม. 10701,"13.786386,100.468166",ที่ทำการ,13.786386,100.468166
8,สถานีเดินรถกำแพงเพชร,243/33  ม.3  ต.นครชุม  อ.เมือง จ.กำแพงเพชร  62000,"16.474482999999999,
99.510103999999998",ที่ทำการ/จุดจำหน่ายตั๋ว,16.474482999999999,"
99.510103999999998"
9,สถานีเดินรถเชียงของ,99 ต.เวียง อ.เชียงของ  จ.เชียงราย 57140,"20.226199999999999,100.403255",ที่ทำการ/จุดจำหน่ายตั๋ว,20.226199999999999,100.403255
10,สถานีเดินรถเชียงคำ,302/5  ม.4  ต.หย่วน อ.เชียงคำ  จ.พะเยา 56110,"19.5222725,100.3026923",ที่ทำการ/จุดจำหน่ายตั๋ว,19.5222725,100.3026923
11,สถานีเดินรถตาก,1/16-17  ถ.พหลโยธิน ต.หนองหลวง  อ.เมือง จ.ตาก  63000,"16.887134,99.127981000000005",ที่ทำการ/จุดจำหน่ายตั๋ว,16.887134,99.1279810
12,สถานีเดินรถนครสวรรค์,605/90 - 91 ม.10  ถ.เอกมหาชัย ต.นครสวรรค์ตก  อ.เมือง จ.นครสวรรค์  60000,"15.701199000000001,100.119017",ที่ทำการ/จุดจำหน่ายตั๋ว,15.701199000000001,100.119017
13,สถานีเดินรถเชียงราย,120/1 หมู่ 26 ถ.พหลโยธินสายใน ต.รอบเวียง  อ.เมือง จ.เชียงราย  57000,"19.8813865210507,
99.837321415543556",ที่ทำการ/จุดจำหน่ายตั๋ว,19.8813865210507,"
99.8373214155435"
14,- จุดรับส่งพัสดุ เชียงราย,120/1 หมู่ 26 ถ.พหลโยธินสายใน ต.รอบเวียง  อ.เมือง จ.เชียงราย  57000 (ห่างกัน 50 ม.),"19.904860699710628,
99.834389909588523",จุดรับ-ส่งพัสดุ,19.904860699710628,"
99.834389909588523"
15,สถานีเดินรถเชียงใหม่,165  ซอย  5 ถ.แก้วนวรัฐ  ต.วัดเกต อ.เมือง  จ.เชียงใหม่ 50000,"18.800056,98.986696",ที่ทำการ/จุดจำหน่ายตั๋ว,18.800056,98.986696
16,- จุดรับส่งพัสดุ เชียงใหม่,สถานีขนส่งผู้โดยสารอาเขตแห่งที่ 2 ถ.แก้วนวรัฐ  ต.วัดเกต อ.เมือง  จ.เชียงใหม่ 50000,"18.80016405436718,
99.017552210408965",จุดรับ-ส่งพัสดุ,18.80016405436718,"
99.01755221040896"
17,สถานีเดินรถเถิน,381  ม.12  ต.ล้อมแรด อ.เถิน  จ.ลำปาง 52160,"17.621379999999998,
99.236631000000003",ที่ทำการ/จุดจำหน่ายตั๋ว,17.621379999999998,"
99.236631000000003"
18,สถานีเดินรถน่าน,สถานีขนส่งจังหวัดน่าน ถ.เจ้าฟ้า ต.ในเวียง  อ.เมือง จ.น่าน  55000,"18.774376,100.763073",ที่ทำการ,18.774376,100.763073
19,- สถานีเดินรถน่าน,7/76 - 77  ถ.เจ้าฟ้า ต.ในเวียง  อ.เมือง จ.น่าน  5500 (ห่างกัน 300เมตร),"18.774556,100.763049",ที่ทำการ/จุดจำหน่ายตั๋ว,18.774556,100.763049
20,สถานีเดินรถพิษณุโลก,834/44 - 45  ถนนมิตรภาพ ต.ในเมือง อ.เมือง  จ.พิษณุโลก 65000 (ทำบัญชี+ขายตั๋ว),"16.819019406118262,
100.27874881411",ที่ทำการ/จุดจำหน่ายตั๋ว,16.819019406118262,"
100.27874881411"
21,- สถานีเดินรถพิษณุโลก (ช่อง 4),834/44 - 45  ถนนมิตรภาพ ต.ในเมือง อ.เมือง  จ.พิษณุโลก 65001 (ห่างจากที่ทำการประมาณ 50 เมตร) (ขายตั๋ว+ใบเวลา),"16.818524,100.279159",จุดจอด/จุดจำหน่ายตั๋ว,16.818524,100.279159
22,สถานีเดินรถแพร่,172/25 - 26 ถ.ยันตกิจโกศล  อ.เมือง จ.แพร่ 54000,"18.148502171475371,
100.151732489903",ที่ทำการ/จุดจำหน่ายตั๋ว,18.148502171475371,"
100.151732489903"
23,สถานีเดินรถพะเยา,14/19 ถ.รอบเวียงประตูกลอง ต.เวียง  อ.เมือง จ.พะเยา  56000,"19.172554999999999,
99.898217000000002",ที่ทำการ/จุดจำหน่ายตั๋ว,19.172554999999999,"
99.898217000000002"
24,สถานีเดินรถพิจิตร,20/30  ถ.คลองคะเชนทร์ ชุมชนราชรถ  ต.ในเมือง อ.เมือง  จ.พิจิตร 66000,"16.447629,100.333560",ที่ทำการ/จุดจำหน่ายตั๋ว,16.447629,100.333560
25,- จุดจำหน่ายตั๋วสนามกีฬาจ.พิจิตร,สนามกีฬาจังหวัดพิจิตร ต.ในเมือง อ.เมือง  จ.พิจิตร 66000,"16.443065,100.324504",จุดจอด/จุดจำหน่ายตั๋ว,16.443065,100.324504
26,สถานีเดินรถแม่สอด,74/1  ม.7  ต.แม่ปะ อ.แม่สอด  จ.ตาก 63110,"16.733259,98.565984",ที่ทำการ/จุดจำหน่ายตั๋ว,16.733259,98.565984
27,สถานีเดินรถเพชรบูรณ์,31/2  ถ.กลางเมืองพัฒนา ต.ในเมือง  อ.เมือง จ.เพชรบูรณ์  67000,"16.408404000000001,101.161759",ที่ทำการ/จุดจำหน่ายตั๋ว,16.408404000000001,101.161759
28,- จุดจอดหนองไผ่ สถานีเพชรบูรณ์,2265 ม.11 ต.หนองไผ่ อ.หนองไผ่  จ.เพชรบูรณ์,"15.988894,101.063734",จุดจอด/จุดจำหน่ายตั๋ว,15.988894,101.063734
29,สถานีเดินรถแม่สาย,100/54 - 55  ม.5 ต.เวียงพางคำ  อ.แม่สาย จ.เชียงราย  57130,"20.405266,99.882325",ที่ทำการ/จุดจำหน่ายตั๋ว,20.405266,99.882325
30,สถานีเดินรถลำปาง,101/17  ถ.จันทร์สุรินทร์ ต.สบตุ๋ย  อ.เมือง จ.ลำปาง 52000,"18.2773857,99.4835633",ที่ทำการ/จุดจำหน่ายตั๋ว,18.2773857,99.4835633
31,- สถานีเดินรถลำปาง แห่งที่ 2,สถานีขนส่งผู้โดยสารจังหวัดลำปาง ถ.จันทร์สุรินทร์ ต.สบตุ๋ย  อ.เมือง จ.ลำปาง 52000,"18.2774066,99.4833593",จุดจำหน่ายตั๋ว,18.2774066,99.4833593
32,สถานีเดินรถลำพูน,56/7 - 8  ถ.สนามกีฬา ต.ในเมือง  อ.เมือง จ.ลำพูน  51000,"18.569515,99.007039",ที่ทำการ/จุดจำหน่ายตั๋ว,18.569515,99.007039
33,สถานีเดินรถสุโขทัย,สถานีขนส่งเฉลิมพระเกียรติ จังหวัดสุโขทัย  ต.ปากแคว อ.เมือง  จ.สุโขทัย 64000,"17.014701,99.8119124",ที่ทำการ/จุดจำหน่ายตั๋ว,17.014701,99.8119124
34,สถานีเดินรถสวรรคโลก,110/7 - 8  ถ.จรดวิถีถ่อง ต.ในเมือง  อ.สวรรคโลก จ.สุโขทัย  64110,"17.311369,99.830363",ที่ทำการ/จุดจำหน่ายตั๋ว,17.311369,99.830363
35,สถานีเดินรถอยุธยา,24/4  ม.2  ถ.สายเอเซีย ต.ธนู  อ.อุทัย จ.พระนครศรีอยุธยา 13000,"14.351934,100.61226600000001",ที่ทำการ/จุดจำหน่ายตั๋ว,14.351934,100.612266
36,- จุดจอดเจ้าพรหม,ถ. นเรศวร ต.ประตูชัย อ.เมืองอยุธยา จ.พระนครศรีอยุธยา,"14.3585179,100.5723637",จุดจำหน่ายตั๋ว,14.3585179,100.5723637
37,สถานีเดินรถอุตรดิตถ์,9 - 11  ถ.พาดวารี ต.ท่าอิฐ  อ.เมือง จ.อุตรดิตถ์  53000,"17.610102000000001,100.086708",ที่ทำการ/จุดจำหน่ายตั๋ว,17.610102000000001,100.086708
38,สถานีเดินรถลำนารายณ์,27  ม.1  ต.ชัยนารายณ์ อ.ชัยบาดาล  จ.ลพบุรี 15130,"15.215158000000001,101.126876",ที่ทำการ/จุดจำหน่ายตั๋ว,15.215158000000001,101.126876
39,สถานีเดินรถคลองลาน,499  ม.4  ต.คลองน้ำไหล อ.คลองลาน  จ.กำแพงเพชร 62180,"16.196228999999999,
99.332724999999996",ที่ทำการ/จุดจำหน่ายตั๋ว,16.196228999999999,"
99.332724999999996"
40,สถานีเดินรถสิงห์บุรี,สถานีขนส่งจังหวัดสิงห์บุรี ถ.นายแท่น  ต.บางพุทรา อ.เมือง  จ.สิงห์บุรี 16000,"14.892951999999999,100.398717",ที่ทำการ/จุดจำหน่ายตั๋ว,14.892951999999999,100.398717
41,สถานีเดินรถอุทัยธานี,44  ถ.เติมศิริ  ต.อุทัยใหม่ อ.เมือง  จ.อุทัยธานี 61000,"15.387869,100.023155",ที่ทำการ/จุดจำหน่ายตั๋ว,15.387869,100.023155
42,- จุดจอดชัยนาท,53/46 ซ.โรงเรียนบ้านกล้วย ถ.วงษ์โต ต.ในเมือง อ.เมือง จ.ชัยนาท,"15.187257,100.125445",จุดจำหน่ายตั๋ว,15.187257,100.125445
43,สถานีเดินรถอ่างทอง,66/6 - 7  ม.5 ต.บ้านอิฐ  อ.เมือง จ.อ่างทอง  14000,"14.579825,100.48415799999999",ที่ทำการ/จุดจำหน่ายตั๋ว,14.579825,100.484157
44,- สถานีเดินรถอ่างทอง แห่งที่ 2,ตลาดอ่างทอง  ต.บ้านอิฐ  อ.เมือง จ.อ่างทอง,"14.594777,100.451641",จุดจอด/จุดจำหน่ายตั๋ว,14.594777,100.451641
45,สถานีเดินรถแม่ฮ่องสอน,144  ถ.ขุมลุมประพาส ต.จองคำ  อ.เมือง จ.แม่ฮ่องสอน  58000,"19.291288,97.959900",ที่ทำการ/จุดจำหน่ายตั๋ว,19.291288,97.959900
46,สถานีเดินรถหล่มสัก,77  ม.4  แยกพ่อขุน ต.หนองไขว่  อ.หล่มสัก จ.เพชรบูรณ์  67110,"16.748479,101.20751199999999",สถานีเดินรถ,16.748479,101.207511
47,สถานีเดินรถลพบุรี,489/12 ถ.นารายณ์มหาราช อ.เมือง  จ.ลพบุรี 15000,"14.798615,100.633413",ที่ทำการ/จุดจำหน่ายตั๋ว,14.798615,100.633413
48,สถานีเดินรถหนองบัวลำภู,200/4 - 5  ม.2 ถ.อุดรชุมแพ  ต.หนองบัวลำภูศรีบุญเรือง อ.เมือง  จ.หนองบัวลำภู 41000,"17.188561009934311,
102.4378820252805",ที่ทำการ/จุดจำหน่ายตั๋ว,17.188561009934311,"
102.4378820252805"
49,สถานีเดินรถกาฬสินธุ์,25/6 - 7  ถ.ประดิษฐ์ อ.เมือง  จ.กาฬสินธุ์ 46000,"16.429801999999999,
103.50197199999999",ที่ทำการ/จุดจำหน่ายตั๋ว,16.429801999999999,"
103.50197199999999"
50,สถานีเดินรถธาตุพนม,218  ม.5  ถ.บายพาส ต.ธาตุพนม  อ.ธาตุพนม จ.นครพนม  48110,"16.945053000000001,104.720922",ที่ทำการ/จุดจำหน่ายตั๋ว,16.945053000000001,104.720922
51,จุดจอดเรณูนคร,200  ม.9  ถ.อำนวยสุข ต.โพนทอง  อ.เรณูนคร จ.นครพนม  48170,"17.052642,104.676922",จุดจอด/จุดจำหน่ายตั๋ว,17.052642,104.676922
52,สถานีเดินรถบุรีรัมย์,87 - 89  ถ.ธานี อ.เมือง  จ.บุรีรัมย์ 31000,"14.9954118,103.096032",ที่ทำการ/จุดจำหน่ายตั๋ว,14.9954118,103.096032
53,- สถานีขนส่งผู้โดยสารจังหวัดบุรีรัมย์,อาคารสถานีขนส่งผู้โดยสาร จ.บุรีรัมย์ ถ.ธานี ต.ในเมือง อ.เมืองบุรีรัมย์ จ.บุรีรัมย์ 31000,"14.995615,103.096163",จุดจอด/จุดจำหน่ายตั๋ว,14.995615,103.096163
54,สถานีเดินรถนครพนม,513  ถ.อภิบาลบัญชา ต.ในเมือง  อ.เมือง จ.นครพนม  48000,"17.3978247,104.7767698",ที่ทำการ/จุดจำหน่ายตั๋ว,17.3978247,104.7767698
55,สถานีเดินรถนางรอง,787/20 - 21 ถ.โชคชัย-เดชอุดม ต.นางรอง  อ.นางรอง จ.บุรีรัมย์  31110,"14.63222778075907,
102.78057257069629",ที่ทำการ/จุดจำหน่ายตั๋ว,14.63222778075907,"
102.7805725706962"
56,- จุดจอดหนองกี่,5/11 ม7 ถ.โชคชัย-เดชอุดม ต.หนองกี่ อ.หนองกี่ จ.บุรีรัมย์,"14.682560,102.543947",จุดจอด/จุดจำหน่ายตั๋ว,14.682560,102.543947
57,สถานีเดินรถเมืองพล,66/8  ถ.รามราช ต.เมืองพล  อ.พล จ.ขอนแก่น  40120,"15.814219581436729,
102.6057240145492",ที่ทำการ/จุดจำหน่ายตั๋ว,15.814219581436729,"
102.6057240145492"
58,- จุดจอดบ้านไผ่,440/60  ต.ในเมือง  อ.บ้านใผ่ จ.ขอนแก่น  40120,"16.056765,102.726941",จุดจอด/จุดจำหน่ายตั๋ว,16.056765,102.726941
59,สถานีเดินรถมหาสารคาม,1112/150 ถ.ริมคลองสมถวิล ต.ตลาด  อ.เมือง จ.มหาสารคาม  44000,"16.180855000000001,
103.301439",ที่ทำการ/จุดจำหน่ายตั๋ว,16.180855000000001,"
103.301439"
60,สถานีเดินรถมุกดาหาร,33/74 - 75  ถ.ชยางกูร ต.มุกดาหาร  อ.เมือง จ.มุกดาหาร  49000,"16.546139,104.71336700000001",ที่ทำการ/จุดจำหน่ายตั๋ว,16.546139,104.713367
61,สถานีเดินรถยโสธร,"385, 387  ถ.รัตนเขต ต.ในเมือง  อ.เมือง จ.ยโสธร  35000","15.809363,104.156891",ที่ทำการ/จุดจำหน่ายตั๋ว,15.809363,104.156891
62,- จุดจอดสถานีขนส่งยโสธร,สถานีขนส่งจังหวัดยโสธร ถนนเลี่ยงเมือง อ.เมือง จ.ยโสธร 35000,"15.809363,104.156891",จุดจอด/จุดจำหน่ายตั๋ว,15.809363,104.156891
63,- จุดจอดพยัคฆ์ภูมิพิสัย,"สถานีขนส่งอำเภอพยัคฆ์ภูมิพิสัย ถนนนิวซีแลนด์ ต.ปะหลาน อ.พยัคฆภูมิพิสัย
จ.มหาสารคาม","15.520293,103.200381",จุดจอด/จุดจำหน่ายตั๋ว,15.520293,103.200381
64,สถานีเดินรถขุขันธ์,764  ม.6  ต.ห้วยเหนือ อ.ขุขันธ์  จ.ศรีสะเกษ 33140,"14.711944000000001,104.198896",ที่ทำการ/จุดจำหน่ายตั๋ว,14.711944000000001,104.198896
65,สถานีเดินรถเลย,83/35  ถ.มะลิวัลย์ ต.กุดป่อง  อ.เมือง จ.เลย  42000,"17.47821727917308,
101.7257402936885",ที่ทำการ/จุดจำหน่ายตั๋ว,17.47821727917308,"
101.7257402936885"
66,- จุดจอดวังสะพุง,311/1 ม.2 ต.ศรีสงคราม อ.วังสะพุง จ.เลย 42130,"17.300793472693581,
101.77713562743899",จุดจอด/จุดจำหน่ายตั๋ว,17.300793472693581,"
101.77713562743899"
67,สถานีเดินรถร้อยเอ็ด,84/2-3  ถ.เทวาภิบาล ต.ในเมือง  อ.เมือง จ.ร้อยเอ็ด  45000,"16.053229294842438,
103.6398337497874",ที่ทำการ/จุดจำหน่ายตั๋ว,16.053229294842438,"
103.6398337497874"
68,สถานีเดินรถศรีสะเกษ,1510/33 - 34 ถ.กวงเฮง  ต.เมืองใต้ อ.เมือง  จ.ศรีสะเกษ 33000,"15.107232,104.32787399999999",ที่ทำการ/จุดจำหน่ายตั๋ว,15.107232,104.327873
69,สถานีเดินรถสกลนคร,1604/116 - 117 ถ.สุขเกษม  อ.เมือง จ.สกลนคร  47000,"17.153907,104.13946300000001",ที่ทำการ/จุดจำหน่ายตั๋ว,17.153907,104.139463
70,- จุดจอดพังโคน,664 ม.1 ต.พังโคน อ.พังโคน  จ. สกลนคร 47160,"17.389995,103.723042",จุดจอด/จุดจำหน่ายตั๋ว,17.389995,103.723042
71,สถานีเดินรถสุรินทร์,367 - 369  ถ.จิตรบำรุง ต.ในเมือง  อ.เมือง จ.สุรินทร์  32000,"14.889176000000001,103.496002",ที่ทำการ/จุดจำหน่ายตั๋ว,14.889176000000001,103.496002
72,สถานีเดินรถปราสาท,715 ม.2 ต.กังแอน  อ.ปราสาท จ.สุรินทร์  32140,"14.636654999999999,
103.40778299999999",ที่ทำการ/จุดจำหน่ายตั๋ว,14.636654999999999,"
103.40778299999999"
73,สถานีเดินรถหนองคาย,910/128 - 129 ถ.ประจักษ์  ต.ในเมือง อ.เมือง  จ.หนองคาย 43000,"17.884636,102.754935",ที่ทำการ/จุดจำหน่ายตั๋ว,17.884636,102.754935
74,สถานีเดินรถอุดรธานี,540/27  ถ.สายอุทิศ ต.หมากแข้ง  อ.เมือง จ.อุดรธานี  41000,"17.403078,102.800344",ที่ทำการ/จุดจำหน่ายตั๋ว,17.403078,102.800344
75,สถานีเดินรถสตึก,344/28 - 29  ม.1 ถ.สนามม้า  ต.นิคม อ.สตึก  จ.บุรีรัมย์ 31150,"15.295443,103.293083",ที่ทำการ/จุดจำหน่ายตั๋ว,15.295443,103.293083
76,สถานีเดินรถอุบลราชธานี,"171-8, 10  ซ.ชยางกูร 3 ถ.ชยางกูร  ต.ในเมือง อ.เมือง  จ.อุบลราชธานี 34000","15.272715,104.837294",ที่ทำการ/จุดจำหน่ายตั๋ว,15.272715,104.837294
77,- จุดจอดเดชอุดม,1059-1060 หมู่ 4 ต.ไชศิริ ต.เมืองเดช อ.เดชอุดม จ.อุบลราชธานี 34160,"14.898369,105.069115",จุดจอด/จุดจำหน่ายตั๋ว,14.898369,105.069115
78,สถานีเดินรถรัตนบุรี,110/5 - 6  ถ.ศรีนคร ต.รัตนบุรี  อ.รัตนบุรี จ.สุรินทร์  32130,"15.324355000000001,
103.84206500000001",ที่ทำการ/จุดจำหน่ายตั๋ว,15.324355000000001,"
103.84206500000001"
79,- จุดจอดท่าตูม,322 ม.13 ต.ท่าตูม อ.ท่าตูม จ.สุรินทร์,"15.325994,103.861653",จุดจอด/จุดจำหน่ายตั๋ว,15.325994,103.861653
80,สถานีเดินรถกันทรลักษ์,267/9 - 10  ม.3 ต.หนองหญ้าลาด อ.กันทรลักษ์  จ.ศรีษะเกษ 33110,"14.645809,104.637316",ที่ทำการ/จุดจำหน่ายตั๋ว,14.645809,104.637316
81,สถานีเดินรถชัยภูมิ,270/2 - 3  ถ.ชัยภูมิ-สีคิ้ว ต.ในเมือง  อ.เมือง จ.ชัยภูมิ  36000,"16.363879,102.128620",ที่ทำการ/จุดจำหน่ายตั๋ว,16.363879,102.128620
82,สถานีเดินรถขอนแก่น,999/215 ถ.มิตรภาพ ต. เมืองเก่า  อ.เมือง จ.ขอนแก่น  40000,"16.390163,102.804737",ที่ทำการ/จุดจำหน่ายตั๋ว,16.390163,102.804737
83,- สถานีขนส่งผู้โดยสาร อบจ.ขอนแก่น,สถานีขนส่งผู้โดยสาร อบจ.ขอนแก่น  ต. เมืองเก่า  อ.เมือง จ.ขอนแก่น  40000,"16.390003121838578,
102.80454882791641",จุดจอด/จุดจำหน่ายตั๋ว,16.390003121838578,"
102.80454882791641"
84,สถานีเดินรถนครราชสีมา,399  ถ.มิตรภาพ ต.ในเมือง  อ.เมือง จ.นครราชสีมา  30000,"14.98924616724527,
102.09423859598139",ที่ทำการ/จุดจำหน่ายตั๋ว,14.98924616724527,"
102.0942385959813"
85,- จุดจอดปากช่อง,71 ถ.มิตรภาพ  ต.ปากช่อง อ.ปากช่อง จ.นครราชสีมา,"14.707812,101.417527",จุดจอด/จุดจำหน่ายตั๋ว,14.707812,101.417527
86,สถานีเดินรถบ้านแพง,355  ม.5  ถ.แพงพิทักษ์ ต.บ้านแพง  อ.บ้านแพง จ.นครพนม  48140,"17.964795,104.209400",ที่ทำการ/จุดจำหน่ายตั๋ว,17.964795,104.209400
87,- จุดจำหน่ายตั๋วกรมการขนส่ง,สถานีขนส่งผู้โดยสารอำเภอบ้านแพง 444 ม.4 ถ.กรมทางพัฒนา ต.บ้านแพง อ.บ้านแพง จ.นครพนม 48140,"17.966504,104.212987",จุดจำหน่ายตั๋ว,17.966504,104.212987
88,สถานีเดินรถบึงกาฬ,473 ม.1 ต.บึงกาฬ อ.บึงกาฬ จ.บึงกาฬ  38000,"18.356390999999999,103.650696",ที่ทำการ/จุดจำหน่ายตั๋ว,18.356390999999999,103.650696
89,สถานีเดินรถสระบุรี,85  ถ.สุดบรรทัด ต.ปากเพรียว  อ.เมือง จ.สระบุรี  18000,"14.523372,100.919389",ที่ทำการ/จุดจำหน่ายตั๋ว,14.523372,100.919389
90,สถานีเดินรถรังสิต,48/26 ซ.พัฒนาเจริญรุ่ง ถ.พหลโยธิน  ต.คลองหนึ่ง อ.คลองหลวง  จ.ปทุมธานี 12120,"14.005886,100.61411200000001",ที่ทำการ/จุดจำหน่ายตั๋ว,14.005886,100.614112
91,- จุดจอดนวนคร,ฝั่งตรงข้ามพิพิธภัณฑ์เกษตรเฉลิมพระเกียรติ ถ.พหลโยธิน อ.คลองหลวง จ.ปทุมธานี,"14.1180958,100.6181955",จุดจอด/จุดจำหน่ายตั๋ว,14.1180958,100.6181955
92,สถานีเดินรถวังน้อย,ถ.พหลโยธิน กม.65 ต.ลำไทร  อ.วังน้อย จ.พระนครศรีอยุธยา 13170,"14.231793,100.715122",ที่ทำการ/จุดจำหน่ายตั๋ว,14.231793,100.715122
93,สถานีเดินรถอรัญประเทศ,4/26  ถ.สุวรรณศร ต.อรัญประเทศ อ.อรัญประเทศ  จ.สระแก้ว 27120,"13.693872000000001,102.502022",ที่ทำการ/จุดจำหน่ายตั๋ว,13.693872000000001,102.502022
94,สถานีเดินรถสระแก้ว,สถานีขนส่งผู้โดยสาร  ถ.สุวรรณศร ต.สระแก้ว  อ.เมือง จ.สระแก้ว  27000,"13.825813,102.067078",ที่ทำการ/จุดจำหน่ายตั๋ว,13.825813,102.067078
95,สถานีเดินรถท่าอากาศยานสุวรรณภูมิ,อาคารศูนย์ขนส่งสาธารณะ ท่าอากาศยานสุวรรณภูมิ 999  ม.1  ต.หนองปรือ อ.บางพลี  จ.สมุทรปราการ 10540,"13.711391000000001,100.768792",ที่ทำการ/จุดจำหน่ายตั๋ว,13.711391000000001,100.768792
96,สถานีเดินรถนครนายก,173/59 - 60  ม.1 ถ.สุวรรณศร  ต.ท่าช้าง อ.เมือง  จ.นครนายก 26000,"14.210853,101.203901",ที่ทำการ/จุดจำหน่ายตั๋ว,14.210853,101.203901
97,สถานีเดินรถฉะเชิงเทรา,270 ถ.บางปะกง-ฉะเชิงเทรา ต.โสธร  อ.เมือง จ.ฉะเชิงเทรา,"13.692397,101.054229",ที่ทำการ/จุดจำหน่ายตั๋ว,13.692397,101.054229
98,สน.ขนส่งจังหวัดฉะเชิงเทรา,สน.ขนส่งจังหวัดฉะเชิงเทรา ต.หน้าเมือง อ.เมือง จ.ฉะเชิงแทรา,"13.692397,101.054229",ที่ทำการ/จุดจำหน่ายตั๋ว,13.692397,101.054229
99,สถานีเดินรถระยอง,155  ถ.เลี่ยงเมืองสาย 3 ต.ทับมา  อ.เมือง จ.ระยอง  21000,"12.700247196492461,
101.21558122346291",ที่ทำการ/จุดจำหน่ายตั๋ว,12.700247196492461,"
101.21558122346291"
100,- จุดจอดแกลง สถานีเดินรถระยอง,204/186 ถ.สุขุมวิท ต.ทางเกวียน อ.แกลง จ.ระยอง 21110,"12.788975,101.634093",จุดจอด/จุดจำหน่ายตั๋ว,12.788975,101.634093
101,สถานีเดินรถชลบุรี,23/1 ม.2 ถ.วิบูลย์ธรรมรัตน์ ต.หนองไม้แดง อ.เมือง จ.ชลบุรี,"13.39285646666667,
100.98617286666671",ที่ทำการ/จุดจำหน่ายตั๋ว,13.39285646666667,"
100.9861728666667"
102,- จุดจอดศรีราชา,141/47 ถ.สุขุมวิท ต.ศรีราชา อ.ศรีราชา จ.ชลบุรี,"13.400366,100.996933",จุดจอด/จุดจำหน่ายตั๋ว,13.400366,100.996933
103,สถานีเดินรถพัทยา,131/100  ม.12 ซ.ชัยพฤกษ์  ต.หนองปรือ อ.บางละมุง  จ.ชลบุรี  20260,"12.920361,100.880223",ที่ทำการ/จุดจำหน่ายตั๋ว,12.920361,100.880223
104,- จุดจอดสัตหีบ,ลานเจริญนายเรือ ม.2 ต.สัตหีบ อ.สัตหีบ จ.ชลบุรี 20180,"12.672865,100.897229",จุดจอด/จุดจำหน่ายตั๋ว,12.672865,100.897229
105,สถานีเดินรถจันทบุรี,24/5  ถ.สฤษดิเดช ต.วัดใหม่  อ.เมือง จ.จันทบุรี  22000,"12.611700000000001,
102.10576500000001",ที่ทำการ/จุดจำหน่ายตั๋ว,12.611700000000001,"
102.10576500000001"
106,สถานีเดินรถตราด,231  ถ.สุขุมวิท ต.วังกระแจะ  อ.เมือง จ.ตราด  23000,"12.248231000000001,102.510265",ที่ทำการ/จุดจำหน่ายตั๋ว,12.248231000000001,102.510265
107,สถานีเดินรถปราจีน,199 ถ.ปราจีนตคาม ต.หน้าเมือง อ.เมือง จ.ปราจีนบุรี 25000,"14.058643,101.372791",ที่ทำการ/จุดจำหน่ายตั๋ว,14.058643,101.372791
108,สถานีเดินรถภูเขียว,444  ม.1 ถ.เกษตรสมบูรณ์ - ภูเขียว ต.ผักปัง  อ.ภูเขียว จ.ชัยภูมิ  36110,"16.364031000000001,
102.12855399999999",สถานีเดินรถ,16.364031000000001,"
102.12855399999999"
109,- จุดจอดชุมแพ,2130 ต.ชุมแพ อ.ชุมแพ จ.ขอนแก่น,"16.542609,102.100550",จุดจอด/จุดจำหน่ายตั๋ว,16.542609,102.100550
110,สถานีเดินรถสมุทรสงคราม,723/2 ถ.รัตนวิถี ต.แม่กลอง อ.เมือง สมุทรสงคราม 75000,"13.405855000000001,100.000016",ที่ทำการ/จุดจำหน่ายตั๋ว,13.405855000000001,100.000016
111,- จุดจำหน่ายตั๋วแม่กลอง,161/5 ม.1 ถนน พระราม 2 ตำบลบางแก้ว อำเภอเมือง จังหวัดสมุทรสงคราม,"13.405702,99.998974",จุดจอด/จุดจำหน่ายตั๋ว,13.405702,99.998974
112,สถานีเดินรถกำแพงแสน,611 หมู่ 1 ต.กำแพงแสน อ.กำแพงแสน จ.นครปฐม 73140,"13.814735,100.064019",ที่ทำการ/จุดจำหน่ายตั๋ว,13.814735,100.064019
113,สถานีเดินรถกาญจนบุรี,987/56  ถ.เตาปูน ต.บ้านเหนือ   อ.เมือง จ.กาญจนบุรี  71000,"14.021202000000001,
99.534143999999998",ที่ทำการ/จุดจำหน่ายตั๋ว,14.021202000000001,"
99.534143999999998"
114,สถานีเดินรถเพชรบุรี,537  ม.6  ต.บ้านหม้อ อ.เมือง  จ.เพชรบุรี 76000,"13.099900999999999,
99.937321999999995",ที่ทำการ/จุดจำหน่ายตั๋ว,13.099900999999999,"
99.937321999999995"
115,สถานีเดินรถหัวหิน,4/113  ถ.เพชรเกษม ต.หนองแก  อ.หัวหิน จ.ประจวบคีรีขันธ์ 77110,"12.550484000000001,
99.961851999999993",ที่ทำการ/จุดจำหน่ายตั๋ว,12.550484000000001,"
99.961851999999993"
116,สถานีเดินรถทับสะแก,179 หมู่ 6 ต.ทับสะแก  อ.ทับสะแก จ.ประจวบคีรีขันธ์ 77130,"11.499109000000001,
99.604213000000001",ที่ทำการ/จุดจำหน่ายตั๋ว,11.499109000000001,"
99.604213000000001"
117,สถานีเดินรถประจวบคีรีขันธ์,539/17  ม.2 ถ.เพชรเกษม  ต.เกาะหลัก อ.เมือง  จ.ประจวบคีรีขันธ์ 77000,"11.826083000000001,
99.781630000000007",ที่ทำการ/จุดจำหน่ายตั๋ว,11.826083000000001,"
99.781630000000007"
118,สถานีเดินรถชุมพร,22/52  ม.1  ต.ขุนกระทิง อ.เมือง  จ.ชุมพร 86190,"10.511019,99.118298",ที่ทำการ/จุดจำหน่ายตั๋ว,10.511019,99.118298
119,- จุดจอดท่าแซะ,206 ม.16 ต.ท่าแซะ อ.ท่าแซะ จ.ชุมพร,"10.662088,99.194760",จุดจอด/จุดจำหน่ายตั๋ว,10.662088,99.194760
120,สถานีเดินรถหลังสวน,321  ม.4  ถ.เพชรเกษม ต.วังตะกอ  อ.หลังสวน จ.ชุมพร  86110,"9.9660720000000005,
99.068876000000003",ที่ทำการ/จุดจำหน่ายตั๋ว,9.9660720000000005,"
99.068876000000003"
121,สถานีเดินรถระนอง,6/60 ม.1 ต.นางริ้น  อ.เมือง จ.ระนอง  85000,"9.954879,98.638751999999997",ที่ทำการ/จุดจำหน่ายตั๋ว,9.954879,98.638751
122,สถานีเดินรถพังงา,สถานีขนส่งผู้โดยสารจังหวัดพังงา  65/4  ม.3  ต.ถ้ำน้ำผุด อ.เมือง  จ.พังงา 82000,"8.4305219999999998,
98.522940000000006",ที่ทำการ/จุดจำหน่ายตั๋ว,8.4305219999999998,"
98.522940000000006"
123,สถานีเดินรถตะกั่วป่า,6/4  ม.2  ถ.เพชรเกษม ต.บางนายสี  อ.ตะกั่วป่า จ.พังงา  82110,"8.8709939999999996,
98.350814999999997",ที่ทำการ/จุดจำหน่ายตั๋ว,8.8709939999999996,"
98.350814999999997"
124,สถานีเดินรถกระบี่,7/77  ถ.ศรีพังงา ต.กระบี่ใหญ่  อ.เมือง จ.กระบี่  81000,"8.0995266850532932,
98.905854608087765",ที่ทำการ/จุดจำหน่ายตั๋ว,8.0995266850532932,"
98.905854608087765"
125,สถานีเดินรถภูเก็ต,"2, 4  ถ.พังงา  ต.ตลาดใหญ่ อ.เมือง  จ.ภูเก็ต  83000","7.917863,98.394906",ที่ทำการ/จุดจำหน่ายตั๋ว,7.917863,98.394906
126,- สถานีเดินรถภูเก็ต 2,สถานีขนส่งผู้โดยสารจ.ภูเก็ต แห่งที่ 2 ต.รัษฎา อ.เมือง จ.ภูเก็ต 83000,"11.499109000000001,
99.604213000000001",จุดจำหน่ายตั๋ว,11.499109000000001,"
99.604213000000001"
127,สถานีเดินรถนครศรีธรรมราช,27/94  - 97  ถ.กระโรม ต.โพธิ์เสด็จ  อ.เมือง จ.นครศรีธรรมราช 80000,"8.4349849999999993,
99.952409000000003",ที่ทำการ/จุดจำหน่ายตั๋ว,8.4349849999999993,"
99.952409000000003"
128,สถานีเดินรถทุ่งสง,สถานีขนส่งฯ อ.ทุ่งสง  144  ม.3 ต.ชะมาย  อ.ทุ่งสง จ.นครศรีธรรมราช 80110,"8.1550309999999993,
99.671092999999999",ที่ทำการ/จุดจำหน่ายตั๋ว,8.1550309999999993,"
99.671092999999999"
129,สถานีเดินรถตรัง,180/1 ต.บ้านโพธิ์ อ.เมือง จ.ตรัง  92000,"7.5668090000000001,
99.627734000000004",ที่ทำการ/จุดจำหน่ายตั๋ว,7.5668090000000001,"
99.627734000000004"
130,สถานีเดินรถพัทลุง,186  ม.2  ต.เขาเจียก อ.เมือง  จ.พัทลุง 93000,"7.6322504270048377,
100.0470296663992",ที่ทำการ/จุดจำหน่ายตั๋ว,7.6322504270048377,"
100.0470296663992"
131,สถานีเดินรถสตูล,1111  ถ.ราษฎร์อุทิศ ต.พิมาน  อ.เมือง  จ.สตูล 91000,"6.5971007534169424,
100.06644173431251",ที่ทำการ/จุดจำหน่ายตั๋ว,6.5971007534169424,"
100.06644173431251"
132,สถานีเดินรถหาดใหญ่,70  ถ.โชติวิทยะกุล 5 ต.คอหงส์  อ.หาดใหญ่ จ.สงขลา  90110,"6.994667,100.481935",ที่ทำการ/จุดจำหน่ายตั๋ว,6.994667,100.48193
133,- สถานีขนส่งฯ เทศบาลนครหาดใหญ่ แห่งที่ 2 (ตลาดเกษตร),"สถานีขนส่งฯ เทศบาลนครหาดใหญ่ แห่งที่ 2 (ตลาดเกษตร) ต.หาดใหญ่ 
อ.หาดใหญ่ จ.สงขลา 90110","6.9990317,100.4456469",จุดจำหน่ายตั๋ว,6.9990317,100.445646
134,- จุดรับ-ส่งพัสดุ สถานีเดินรถหาดใหญ่,"6, 8 ถ.โชติวิทยะกุล 5 ต.หาดใหญ่  อ.หาดใหญ่ จ.สงขลา  90110","6.9927145,100.4853691",จุดรับ-ส่งพัสดุ,6.9927145,100.485369
135,สถานีเดินรถปัตตานี,สถานีขนส่งฯ จ.ปัตตานี ถ.เพชรเกษม  ต.ตะลุโบ๊ะ อ.เมือง  จ.ปัตตานี 94000,"6.8624460000000003,101.269758",ที่ทำการ/จุดจำหน่ายตั๋ว,6.8624460000000003,101.269758
136,สถานีเดินรถยะลา,สถานีขนส่งฯ เทศบาลนคร ยะลา  ต.สะเตง  อ.เมือง จ.ยะลา  95000,"6.5560130000000001,101.26809",ที่ทำการ/จุดจำหน่ายตั๋ว,6.5560130000000001,101.26809
137,สถานีเดินรถนราธิวาส,352  ถ.ระแงะมรรคา ต.บางนาค  อ.เมือง จ.นราธิวาส 96120,"6.410889,101.826143",ที่ทำการ/จุดจำหน่ายตั๋ว,6.410889,101.82614
138,สถานีเดินรถสุไหงโก -ลก,578 ถ.ประชาวิวัฒน์ อ.สุไหงโก -ลก  จ.นราธิวาส 96120,"6.0216560000000001,101.950084",ที่ทำการ/จุดจำหน่ายตั๋ว,6.0216560000000001,101.950084
139,สถานีเดินรถราชบุรี,89/6 หมู่ 9 ต.เจดีห์หัก อ.เมือง จ.ราชบุรี 70000,"13.527086000000001,
99.780970999999994",ที่ทำการ/จุดจำหน่ายตั๋ว,13.527086000000001,"
99.780970999999994"
140,สถานีเดินรถสุราษฎร์ธานี,"130/181  ม.10 ถ.สุราษฎร์  - พุนพิน ต.วัดประดู่  อ.เมือง จ.สุราษฎร์ธานี 
84000","9.111614,99.298296",สถานีเดินรถ,9.111614,99.298296
141,สถานีเดินรถเกาะสมุย,31/21 ต.อ่างทอง อ.เกาะสมุย  จ.สุราษฎร์ธานี 84140,"9.521343,99.941158",ที่ทำการ/จุดจำหน่ายตั๋ว,9.521343,99.941158
142,สถานีเดินรถนครปฐม,89  ถ.หน้าพระ ต.ห้วยจระเข้  อ.เมือง จ.นครปฐม  73000,"13.814503999999999,
100.06402300000001",ที่ทำการ/จุดจำหน่ายตั๋ว,13.814503999999999,"
100.06402300000001"
143,สถานีเดินรถสุพรรณบุรี,185  ถ.เณรแก้ว ต.ท่าระหัด  อ.เมือง จ.สุพรรณบุรี  72000,"14.473819000000001,100.125412",สถานีเดินรถ,14.473819000000001,100.125412
144,ด่านตรวจการนวนคร (ขาเข้า),ทางคู่ขนาน ถ.พหลโยธิน ต.คลองหนึ่ง อ.คลองหลวง จ.ปทุมธานี,"14.116630,100.618940",ด่านตรวจ,14.116630,100.618940
145,ด่านตรวจการนวนคร (ขาออก),ทางคู่ขนาน ถ.พหลโยธิน ต.เชียงรากน้อย อ.บางปะอิน จ.พระนครศรีอยุธยา,"14.154236,100.617916",ด่านตรวจ,14.154236,100.617916
146,ด่านตรวจการอินทร์บุรี (ขาเข้า),199 หมู่ 7 ต.อินทร์บุรี อ.อินทร์บุรี จ.สิงห์บุรี,"15.009771,100.343349",ด่านตรวจ,15.009771,100.343349
147,ด่านตรวจการอินทร์บุรี (ขาออก),จุดบริการผู้โดยสาร ถ.สายเอเชีย อ.อินทร์บุรี จ.สิงห์บุรี,"14.973129,100.362566",ด่านตรวจ,14.973129,100.362566
148,ด่านตรวจการวังน้อย (ขาออก),ถ.พหลโยธิน อ.วังน้อย จ.พระนครศรีอยุธยา,"14.231878,100.715243",ด่านตรวจ,14.231878,100.715243
149,ด่านตรวจการสีคิ้ว (ขาเข้า),119 หมู่ 15 ต.ลาดบัวขาว อ.สีคิ้ว จ.นครราชสีมา,"14.824379,101.544398",ด่านตรวจ,14.824379,101.544398
150,ด่านตรวจการสีคิ้ว (ขาออก),119 หมู่ 15 ต.ลาดบัวขาว อ.สีคิ้ว จ.นครราชสีมา,"14.824294,101.544143",ด่านตรวจ,14.824294,101.544143
151,ด่านตรวจการท่าตำหนัก (ขาเข้า),54/1 หมู่ 3 ต.ท่าตำหนัก อ.นครชัยศรี จ.นครปฐม,"13.787865,100.172640",ด่านตรวจ,13.787865,100.172640
152,ด่านตรวจการท่าตำหนัก (ขาออก),34 หมู่ 4 ต.ท่าตำหนัก อ.นครชัยศรี จ.นครปฐม,"13.785709,100.173364",ด่านตรวจ,13.785709,100.173364
153,ด่านตรวจการวังมะนาว,ภายในตลาดพูนทรัพย์ หมู่ที่ 1 ตำบลบางเค็ม อำเภอเขาย้อย จังหวัดเพชรบุรี,"13.261150,99.823413",ด่านตรวจ,13.261150,99.823413
154,ด่านตรวจการเขาโพธิ์,"99/8, 99/9 หมู่ 1 ต.ไชยราช อ.บางสะพานน้อย จ.ประจวบคีรีขันธ์","10.991286,99.354749",ด่านตรวจ,10.991286,99.354749
155,ด่านตรวจการแม่กลอง (ขาเข้า),8/5 หมู่ 10 ต.บางขันแตก อ.เมือง จ.สมุทรสงคราม,"13.370350,99.956764",ด่านตรวจ,13.370350,99.956764
156,ด่านตรวจการบางนา (ขาออก),สี่แยกบางนา ถ.เทพรัตน์ แขวงบางนา เขตบางนา กทม.,"13.673113,100.607591",ด่านตรวจ,13.673113,100.607591
